{
  "features": [
    {
      "geometry": {
        "coordinates": [
          [
            [-122.02486581491578, 37.98144312943563],
            [-122.02522645394191, 37.98192284039117],
            [-122.02568675554443, 37.9817041593704],
            [-122.02569465077298, 37.98170096364334],
            [-122.02570188519631, 37.98169646804279],
            [-122.02570824677618, 37.98169080433315],
            [-122.02571354905702, 37.98168413851564],
            [-122.02571763663096, 37.981676665962894],
            [-122.02572038969272, 37.98166860569267],
            [-122.0257217275511, 37.98166019394848],
            [-122.02572161099394, 37.98165167727544],
            [-122.02572004343752, 37.981643305294064],
            [-122.02571707082629, 37.98163532338403],
            [-122.02571278028643, 37.98162796549215],
            [-122.02538568209306, 37.981197179641626],
            [-122.02486581491578, 37.98144312943563]
          ]
        ],
        "type": "Polygon"
      },
      "properties": {
        "ACREAGE": 0.84,
        "APN": "111240006",
        "APN2": "111-240-006",
        "PARCELMAP": "https://ccmap.cccounty.us/HTML5/assessorPDF/111p24x0.pdf",
        "P_OWNER_NM": "CONCORD CITY OF",
        "assr_url": "gis.cccounty.us/HTML5/assessorPDF/111p24x0.pdf",
        "full_address_display": "2900  SALVIO ST   - CONCORD",
        "parcel_dashes": "111-240-006"
      },
      "type": "Feature"
    }
  ],
  "type": "FeatureCollection"
}
