{
  "crs": {
    "properties": {
      "name": "EPSG:4326"
    },
    "type": "name"
  },
  "features": [
    {
      "geometry": {
        "coordinates": [
          [
            [-122.05996128713313, 37.90160133569741],
            [-122.0605478952376, 37.90159833724063],
            [-122.06037000962169, 37.90119542763212],
            [-122.06015065074034, 37.90067614033421],
            [-122.05956007570454, 37.90067710228351],
            [-122.05957392954925, 37.90071003317802],
            [-122.05931887486501, 37.900710615796626],
            [-122.05924446977508, 37.900887927852246],
            [-122.05920634371384, 37.90097877678735],
            [-122.05934581897812, 37.90097817066548],
            [-122.05927923318171, 37.901107343817095],
            [-122.05915217257241, 37.901107878769665],
            [-122.05909308330739, 37.90124869366309],
            [-122.05990155197031, 37.90123568628675],
            [-122.05990970672524, 37.901540604976496],
            [-122.05991029278832, 37.90156257040336],
            [-122.05996128713313, 37.90160133569741]
          ]
        ],
        "type": "Polygon"
      },
      "properties": {
        "ACREAGE": 2.202,
        "APN": "178300039",
        "APN2": "178-300-039",
        "PARCELMAP": "https://ccmap.cccounty.us/HTML5/assessorPDF/178p30x0.pdf",
        "P_OWNER_NM": "WALNUT CREEK CITY OF",
        "assr_url": "gis.cccounty.us/HTML5/assessorPDF/178p30x0.pdf",
        "full_address_display": "1644  BROADWAY  - WALNUT CREEK",
        "parcel_dashes": "178-300-039"
      },
      "type": "Feature"
    }
  ],
  "type": "FeatureCollection"
}
